STARLINK-1785
1 17124C 20088C   21326.08336032  .00003356  00000-0  22488-3 0  3263
2 17124  53.0511 148.3771 0001920  79.9987 224.6711 15.06387633    13
